GLOBALSTAR M045         
1 25676U 99019A   26022.29203310 -.00000079  00000+0  12939-3 0  9999
2 25676  51.9982  40.7677 0000117 176.1095 196.8691 12.27071165220298
GLOBALSTAR M019         
1 25677U 99019B   26021.70981964 -.00000185  00000+0 -98990-3 0  9993
2 25677  51.9844 188.1721 0002217  69.1523 303.8580 12.13879956211682
GLOBALSTAR M044         
1 25678U 99019C   26021.67915985 -.00000082  00000+0  28842-4 0  9995
2 25678  51.9947 166.9496 0007137 101.1790 271.5229 11.90264162197347
GLOBALSTAR M042         
1 25679U 99019D   26022.32933595 -.00000110  00000+0 -16354-3 0  9993
2 25679  52.0004 152.3028 0003272  49.7896 326.6187 12.22095959212057
GLOBALSTAR M025         
1 25770U 99031A   26022.27696610 -.00000076  00000+0 -27338-3 0  9992
2 25770  51.9849  11.7319 0002221 144.1324 316.8647 11.22560856506313
GLOBALSTAR M049         
1 25771U 99031B   26022.03030861 -.00000147  00000+0 -28320-2 0  9997
2 25771  51.9887  58.0630 0002724  35.1067 324.9909 11.12122497141777
GLOBALSTAR M047         
1 25772U 99031C   26022.32843165 -.00000072  00000+0 -67555-4 0  9991
2 25772  51.9852  33.4202 0016272 278.8580  81.0384 11.31931936495925
GLOBALSTAR M052         
1 25773U 99031D   26021.67872834 -.00000084  00000+0 -59770-3 0  9996
2 25773  51.9845 164.4619 0003269 153.2559 220.0868 11.15063293502889
